#dP2019  1 14  0  0  0.00000000      96 __u+U ITR00 FIT  IAC
## 2036  86400.00000000   900.00000000 58497 0.0000000000000
+   92   C01C02C03C04C05C06C07C08C09C10C11C12C13C14E01E02E03
+        E04E05E07E08E09E11E12E13E14E15E18E19E21E24E25E26E27
+        E30E31E33E36G01G02G03G04G05G06G07G08G09G10G11G12G13
+        G14G15G16G17G18G19G20G21G22G23G24G25G26G27G28G29G30
+        G32R01R02R03R04R05R07R08R09R10R11R13R14R15R16R17R18
+        R19R20R21R22R23R24R26  0  0  0  0  0  0  0  0  0  0
++        13 12 13 13 12  9  9  9  8  8  8  8  9  8  6  5  6
++         6  6  6  6  5  5  5  6  5  7  5  5  6  5  5  5  6
++         6  6  6  7  4  3  4  4  3  3  4  3  3  3  3  4  3
++         3  3  3  3  3  3  3  3  4  3  4  4  4  6  3  4  3
++         4  5  5  6  6  6  6  5  5  5  6  6  5  5  5  5  5
++         5  6  6  6  5  5  9  0  0  0  0  0  0  0  0  0  0
%c M  cc GPS ccc cccc cccc cccc cccc ccccc ccccc ccccc ccccc
%c cc cc ccc ccc cccc cccc cccc cccc ccccc ccccc ccccc ccccc
%f  0.0000000  0.000000000  0.00000000000  0.000000000000000
%f  0.0000000  0.000000000  0.00000000000  0.000000000000000
%i    0    0    0    0      0      0      0      0         0
%i    0    0    0    0      0      0      0      0         0
/*                                                          
/*   RSA / INFORMATION & ANALYSIS CENTER (IAC) OF MCC       
/*   ULTRA-RAPID DETERMINATION                              
/* PCV:IGS14_2035 OL/AL:FES2004  NONE     YN ORB:CoN CLK:CoN
*  2019 01 14 19 45  0.00000000
PC01 -32313.243184  27063.075607    133.273085     88.305869
PC02   4405.959057  41956.740496    895.283368   -245.129570
PC03 -14856.328070  39482.274610    367.555376   -116.543453
PC04 -39611.967836  14376.402738    221.850285   -214.241838
PC05  21902.438185  36032.495285    894.293199    -62.219061
PC06 -24121.711934  32864.204298 -11190.029441    273.865908
PC07  -9421.061780  33436.638215 -23471.667213    200.115320
PC08 -12610.656114  18888.596668  35571.428365     89.062685
PC09 -12584.893200  32579.824485 -23670.803946    449.633245
PC10   2200.878341  40176.119188 -11778.571582   -407.803926
PC11  -5211.466051  16462.909471  21967.856157    -92.168669
PC12 -26554.570934   8351.221435   1175.018169    346.065966
PC13    500.386496  24147.194330  34638.173919   -484.760111
PC14 -10468.879205  25203.570514   6009.217778    723.513854
PE01   3624.164888  26966.375616 -11659.270131   -520.787507
PE02  -3648.186049 -26968.315365  11628.551054     43.335555
PE03   7394.606195 -25628.682625  12839.207635   -122.184620
PE04   9552.617058  15263.749227 -23495.962374   -200.057770
PE05  20111.388882 -21036.559266  -5405.434851    125.051771
PE07 -21018.482787   4160.039384  20419.850193   -112.590886
PE08  -9621.104394 -15042.093959  23606.207823   6423.419203
PE09  20891.949611  -4430.321319 -20501.817093   6558.238478
PE11  29494.065628   2240.787098   -888.132383   5719.789022
PE12  20097.228314  13407.459734  17103.775827   5942.716069
PE13 -29511.475215  -2181.873949    749.666820    381.734432
PE14 -25393.091853  -3219.723102 -18404.937845   6459.908424
PE15 -20511.898273 -13082.318110 -16846.671366    922.962355
PE18  23651.922814  -6872.388817   6130.889196   5606.256691
PE19  -9002.616415  25869.858990 -11230.179316     -9.121701
PE21 -10924.783569  13824.482029 -23785.812418   -514.437212
PE24  18767.228248   6866.274914  21835.163669   6285.957262
PE25  10954.560841 -13782.048733  23801.202847   1923.821995
PE26 -21451.695792   9918.596074  17828.107623   5019.681472
PE27 -18840.935202  -7332.171349 -21613.330031    549.710329
PE30 -15782.833556 -23966.153800  -7237.209296   5188.466063
PE31  15706.986177  24157.255789   6783.792279    932.623141
PE33   -527.782931  16376.091387  24664.585460    847.920400
PE36  21274.744775 -10026.818877 -17960.137769    759.652365
PG01 -22413.036874 -14236.585749  -3234.468589   -145.389650
PG02   4714.406227  17608.474013  19979.365523   -113.117436
PG03 -12958.517816 -15087.874037  17598.659228    177.187542
PG04 -24036.175078   9839.548990   5565.295929     82.949148
PG05   2700.882152  26289.730322  -1175.771767      0.804837
PG06  -9112.958526  12043.968180  21891.036405    296.867246
PG07 -24148.498711  -4706.838781 -10338.526284     51.689666
PG08  -7542.595248 -12975.239516 -21859.201005   -129.069152
PG09 -23183.323803   5215.936136  11828.398228    471.712316
PG10  11577.798091 -15893.545615 -17716.004586    135.567966
PG11 -20768.981513 -10861.731827 -12817.528367   -675.305415
PG12  10332.485341  18354.473463  16094.037871    276.358446
PG13  -1326.183441  16559.836845 -20834.534275    -78.315421
PG14  15672.096975 -17880.827427  11950.233197    -93.152988
PG15  11759.506849  11116.092502 -21339.830131   -332.237093
PG16   -203.496292 -26269.245507  -1828.905591    -12.737129
PG17 -21653.547809  14975.763327   3457.683030     -4.736183
PG18 -15843.342241 -17401.687914 -12930.334503     15.793075
PG19 -16725.239991  17075.870367  11402.421813   -363.348702
PG20  14996.728167  -6077.591440 -21164.716397    521.122904
PG21  23268.385351   1097.803602 -11863.362116   -269.096995
PG22 -11344.771315 -21055.238628  11831.097408   -622.732078
PG23 -18747.387400  -3966.870350  18863.465623   -200.525636
PG24  20396.274763  15535.352820  -7698.756146    -60.799144
PG25  14633.996919   6617.024762  21009.520500   -705.914494
PG26   4307.621450 -24711.750166   8459.788116     96.399639
PG27   3111.573352 -17681.860726 -19558.496936    -49.045645
PG28 -12636.108905  14055.009135 -18079.912773    761.929537
PG29  22035.417958  -1018.748225  14770.761080    293.286484
PG30 -18436.787215   4914.067977 -18529.786276    -35.905373
PG32  19795.485340 -16962.673249   4829.014048   -274.746052
PR01  -2382.992040  21562.567126 -13411.582889     37.935138
PR02   9439.971185   5552.169200 -23007.316605    349.380395
PR03  14510.643536 -12284.410640 -16949.069454    154.527060
PR04  10818.346767 -23083.519091   -557.225971    291.309501
PR05   1349.620195 -20348.157030  15312.243896     19.963293
PR07 -14578.456883  12720.929064  16671.519846    -55.848931
PR08 -11209.966791  22878.761097   1385.478360     19.555847
PR09 -17271.189671 -14488.332214 -11984.291913     49.000738
PR10 -12812.958402   -595.092722 -22082.261236     39.658226
PR11   -819.627833  15618.871504 -20123.857934    -53.499845
PR13  17338.467009  15110.877049  11016.009807    -19.002044
PR14  12961.788176    278.150635  21977.534000     34.940309
PR15   1353.867639 -14952.482567  20639.411270     99.298733
PR16 -11325.196232 -21523.334457   7466.047646    -11.649799
PR17  24912.519975  -4002.559623  -3855.398607    196.180986
PR18  14590.455760  -9722.866756 -18480.415419     29.953012
PR19  -3439.668221 -10193.221774 -23120.808618    -62.105044
PR20 -21222.352548  -4628.273977 -13398.327573   -365.607078
PR21 -24744.054543   4243.487204   4449.318482    -25.572566
PR22 -12440.950436  10083.890788  19909.748841    -64.304388
PR23   8799.240648   9264.883771  22076.306712    203.233996
PR24  22123.470216   3621.103653  12139.201763   -176.033965
PR26 -19948.363600  -5089.503899 -15026.438972     15.914249
EOF
